NUSAT-1 (FRESCO)        
1 41557U 16033B   22179.53538632  .00009923  00000+0  29468-3 0  9995
2 41557  97.3889 277.2524 0009932 346.0351 137.3604 15.34940252339084
BEESAT-4                
1 41619U 16040W   22179.09390459  .00008844  00000+0  29352-3 0  9999
2 41619  97.2161 229.4399 0011235  83.5925 276.6596 15.31401391322355
CAS-2T & KS-1Q          
1 41847U 16066G   22179.47165441  .00000684  00000+0  11221-3 0  9993
2 41847  98.5506 244.1318 0363960 176.7473 183.6210 14.38601459295934
NAYIF-1 (EO-88)         
1 42017U 17008BX  22179.45243635  .00009277  00000+0  27584-3 0  9996
2 42017  97.2686 245.4080 0005094 184.9830 175.1364 15.34950471298766
ZHUHAI-1 02 (CAS-4B)    
1 42759U 17034B   22179.61783088  .00002906  00000+0  17906-3 0  9996
2 42759  43.0181 271.1586 0009676 352.0161 141.9755 15.11992282278045
ZHUHAI-1 01 (CAS-4A)    
1 42761U 17034D   22179.58680072  .00002964  00000+0  18196-3 0  9990
2 42761  43.0181 270.1095 0009750 353.3849 140.2255 15.12079430278041
MAX VALIER SAT          
1 42778U 17036P   22179.52847842  .00005101  00000+0  19399-3 0  9996
2 42778  97.2040 220.2494 0008720 288.9214  71.1080 15.27168823278597
RADFXSAT (FOX-1B)       
1 43017U 17073E   22179.44933681  .00002135  00000+0  16364-3 0  9995
2 43017  97.6747  73.1942 0249149 151.5336 209.9751 14.81449835248741
FOX-1D (AO-92)          
1 43137U 18004AC  22179.15203095  .00005667  00000+0  20024-3 0  9991
2 43137  97.3689 254.2125 0006424 334.4797  25.6125 15.29580469247986
DIWATA-2B               
1 43678U 18084H   22179.44687960  .00000299  00000+0  35106-4 0  9992
2 43678  97.9719 312.8415 0008539 246.2564 113.7768 14.92184620199492
ES'HAIL 2               
1 43700U 18090A   22179.48849192  .00000153  00000+0  00000+0 0  9995
2 43700   0.0147 329.6936 0000996 161.1469 347.3884  1.00274419 13142
FOX-1CLIFF (AO-95)      
1 43770U 18099N   22179.42257030  .00001093  00000+0  10115-3 0  9995
2 43770  97.6208 245.4881 0012798 235.3351 124.6665 14.96484998194653
ITASAT 1                
1 43786U 18099AE  22179.41481308  .00001436  00000+0  13085-3 0  9998
2 43786  97.6237 246.4050 0013503 226.9087 133.1006 14.96626499194690
JY1SAT (JO-97)          
1 43803U 18099AX  22179.42892977  .00000831  00000+0  76824-4 0  9996
2 43803  97.6195 246.1773 0013578 226.9867 133.0218 14.97128587194713
UWE-4                   
1 43880U 18111E   22179.55436039  .00002352  00000+0  20291-3 0  9999
2 43880  97.6684  85.6713 0009631 285.9859  74.0303 14.98214194191360
NEXUS (FO-99)           
1 43937U 19003F   22179.54324317  .00007193  00000+0  24128-3 0  9998
2 43937  97.1290 212.4631 0022553 113.2170 247.1450 15.30930906191670
PSAT2 (NO-104)          
1 44354U 19036R   22179.09091439  .00054720 -52307-5  47353-3 0  9991
2 44354  28.5237 104.5387 0225357  90.6306 272.0119 15.41181545166320
JAISAT-1                
1 44419U 19038F   22179.44959684  .00004754  00000+0  23955-3 0  9999
2 44419  97.6358 149.6615 0021356  93.4049 266.9627 15.17468731164721
DUCHIFAT-3              
1 44854U 19089C   22179.61492101  .00002828  00000+0  22240-3 0  9999
2 44854  36.9670  34.1728 0009848 313.0477  46.9438 15.01147855139618
CAS-6 (TO-108)          
1 44881U 19093C   22179.51839062  .00000473  00000+0  66635-4 0  9995
2 44881  97.8926 258.5679 0015771 145.6621 214.5617 14.81740631136412
RS-44 & BREEZE-KM R/B   
1 44909U 19096E   22179.52703961  .00000028  00000+0  75692-4 0  9997
2 44909  82.5206 222.9188 0216253 293.9847  63.8748 12.79713638116926
ORBITAL FACTORY 2 (OF-2)
1 45113U 19071C   22179.55326819  .00014809  00000+0  30680-3 0  9993
2 45113  51.6389   4.7326 0009843 210.1454 149.8968 15.45932476135090
HUSKYSAT-1 (HO-107)     
1 45119U 19071J   22179.56584222  .00013300  00000+0  28581-3 0  9996
2 45119  51.6393   4.7904 0009615 206.4595 153.5902 15.44956034135088
BY70-2                  
1 45857U 20042B   22179.51511095  .00005772  00000+0  76965-3 0  9991
2 45857  97.9545 256.2485 0012285  84.9628 275.2974 14.79941037107095
SALSAT                  
1 46495U 20068K   22179.46938718  .00001036  00000+0  78229-4 0  9992
2 46495  97.7294 120.7732 0015094 237.9779 121.9980 15.04549547 95843
BY70-3                  
1 46839U 20079N   22179.60933422  .00017108  00000+0  39712-3 0  9999
2 46839  97.1986 251.5595 0003598 289.6188 206.1786 15.42432177 91962
RADFXSAT-2 (AO-109)     
1 47311U 21002C   22179.54619317  .00004493  00000+0  18645-3 0  9994
2 47311  60.6859 320.4831 0018215 345.6741  14.3828 15.25452348 80159
UVSQ-SAT                
1 47438U 21006AB  22179.10668628  .00004035  00000+0  21448-3 0  9996
2 47438  97.4368 237.8983 0010656 232.1323 127.8946 15.15803917 78898
DIY-1 (ARDUIQUBE)       
1 47963U 21022AH  22179.25418511  .00008025  00000+0  44640-3 0  9999
2 47963  97.5325  80.4897 0019341  94.1422 266.2021 15.13767778 68586
XW-3 (CAS-9)            
1 50466U 21131B   22179.50987650  .00000081  00000+0  41232-4 0  9994
2 50466  98.5806 256.7586 0005905 113.3059 246.8750 14.38504179 26506
TEVEL-3                 
1 50988U 22002E   22179.45161418  .00005739  00000+0  31445-3 0  9990
2 50988  97.4814 246.2501 0010311  35.3457 336.8050 15.14550169 25085
TEVEL-8                 
1 50989U 22002F   22179.46516500  .00005628  00000+0  30889-3 0  9996
2 50989  97.4830 246.2817 0010392  34.3248  21.7820 15.14497828 25087
TEVEL-5                 
1 50998U 22002Q   22179.46904093  .00005741  00000+0  31026-3 0  9994
2 50998  97.4806 246.3635 0011599  30.0122 342.6063 15.15027333 25099
TEVEL-6                 
1 50999U 22002R   22179.42385551  .00005753  00000+0  31084-3 0  9990
2 50999  97.4808 246.3174 0011706  29.7079  98.6522 15.15031307 25089
TEVEL-1                 
1 51013U 22002AF  22179.46229231  .00005673  00000+0  31110-3 0  9995
2 51013  97.4803 246.2440 0010163  35.1411  22.2563 15.14525838 25088
TEVEL-7                 
1 51062U 22002CG  22179.46678334  .00005624  00000+0  30875-3 0  9994
2 51062  97.4823 246.2736 0010227  33.8427  23.6282 15.14487894 25087
TEVEL-4                 
1 51063U 22002CH  22179.47970609  .00005613  00000+0  30825-3 0  9999
2 51063  97.4821 246.2831 0010208  34.1721  90.8661 15.14480180 25080
TEVEL-2                 
1 51069U 22002CP  22179.45274802  .00005741  00000+0  31462-3 0  9995
2 51069  97.4809 246.2405 0010169  35.6745 336.9069 15.14542591 25088
